NORAD_CAT_ID,OBJECT_NAME,OBJECT_TYPE,EPOCH,MEAN_MOTION,ECCENTRICITY,INCLINATION,RA_OF_ASC_NODE,ARG_OF_PERICENTER,MEAN_ANOMALY,BSTAR,MEAN_MOTION_DOT,MEAN_MOTION_DDOT,TLE_LINE0,TLE_LINE1,TLE_LINE2,SEMIMAJOR_AXIS,PERIOD,APOGEE,PERIGEE,DECAYED
55646.0,STARLINK-5104,PAYLOAD,2024-06-01 21:23:32,14.98329318,0.0002984,69.9997,12.8809,270.8774,89.2043,-2.3605e-05,-3.75e-06,0.0,0 STARLINK-5104,1 55646U 23021U   24153.89134746 -.00000375  00000-0 -23605-4 0  9998,2 55646  69.9997  12.8809 0002984 270.8774  89.2043 14.98329318 71757,6950.195,96.107,574.134,569.986,0.0
55646.0,STARLINK-5104,PAYLOAD,2024-06-02 00:35:48,14.98329742,0.0002985,69.9998,12.5442,270.9758,89.1059,-1.7763e-05,-3.05e-06,0.0,0 STARLINK-5104,1 55646U 23021U   24154.02486709 -.00000305  00000-0 -17763-4 0  9994,2 55646  69.9998  12.5442 0002985 270.9758  89.1059 14.98329742 72075,6950.194,96.107,574.133,569.984,0.0
55646.0,STARLINK-5104,PAYLOAD,2024-06-02 21:25:33,14.98332149,0.0002986,69.9998,10.3559,271.198,88.8837,3.3883e-05,3.11e-06,0.0,0 STARLINK-5104,1 55646U 23021U   24154.89274377  .00000311  00000-0  33883-4 0  9991,2 55646  69.9998  10.3559 0002986 271.1980  88.8837 14.98332149 71907,6950.186,96.107,574.127,569.976,0.0
55646.0,STARLINK-5104,PAYLOAD,2024-06-03 07:02:21,14.98330766,0.0002943,69.9999,9.3457,271.6828,88.3994,3.0074e-05,2.66e-06,0.0,0 STARLINK-5104,1 55646U 23021U   24155.29330449  .00000266  00000-0  30074-4 0  9997,2 55646  69.9999   9.3457 0002943 271.6828  88.3994 14.98330766 72264,6950.191,96.107,574.101,570.01,0.0
55646.0,STARLINK-5104,PAYLOAD,2024-06-04 00:39:50,14.98328783,0.0002989,69.9998,7.4937,273.4274,86.6543,2.7326e-05,2.33e-06,0.0,0 STARLINK-5104,1 55646U 23021U   24156.02766570  .00000233  00000-0  27326-4 0  9997,2 55646  69.9998   7.4937 0002989 273.4274  86.6543 14.98328783 72076,6950.197,96.107,574.139,569.984,0.0
55646.0,STARLINK-5104,PAYLOAD,2024-06-04 07:04:22,14.98331489,0.0003013,69.9999,6.8202,273.5528,86.5287,2.5948e-05,2.17e-06,0.0,0 STARLINK-5104,1 55646U 23021U   24156.29470389  .00000217  00000-0  25948-4 0  9996,2 55646  69.9999   6.8202 0003013 273.5528  86.5287 14.98331489 72416,6950.188,96.107,574.147,569.959,0.0
55646.0,STARLINK-5104,PAYLOAD,2024-06-04 23:05:42,14.98332516,0.0002972,69.9991,5.137,271.1029,88.9789,9.4113e-06,1.9e-07,0.0,0 STARLINK-5104,1 55646U 23021U   24156.96230246  .00000019  00000-0  94113-5 0  9997,2 55646  69.9991   5.1370 0002972 271.1029  88.9789 14.98332516 72515,6950.185,96.107,574.116,569.985,0.0
55646.0,STARLINK-5104,PAYLOAD,2024-06-05 13:30:55,14.98326993,0.0002946,69.9981,3.6218,271.1299,88.9522,-1.364e-05,-2.56e-06,0.0,0 STARLINK-5104,1 55646U 23021U   24157.56314646 -.00000256  00000-0 -13640-4 0  9991,2 55646  69.9981   3.6218 0002946 271.1299  88.9522 14.98326993 72302,6950.202,96.107,574.115,570.02,0.0
55646.0,STARLINK-5104,PAYLOAD,2024-06-05 19:55:28,14.98327885,0.0002915,69.9977,2.9488,270.3601,89.7224,-1.133e-05,-2.28e-06,0.0,0 STARLINK-5104,1 55646U 23021U   24157.83018617 -.00000228  00000-0 -11330-4 0  9993,2 55646  69.9977   2.9488 0002915 270.3601  89.7224 14.98327885 72648,6950.199,96.107,574.09,570.038,0.0
55646.0,STARLINK-5104,PAYLOAD,2024-06-06 07:08:24,14.98327563,0.0002893,69.999,1.7706,269.7268,90.356,-1.4409e-05,-2.65e-06,0.0,0 STARLINK-5104,1 55646U 23021U   24158.29750714 -.00000265  00000-0 -14409-4 0  9996,2 55646  69.9990   1.7706 0002893 269.7268  90.3560 14.98327563 72711,6950.2,96.107,574.076,570.055,0.0
55646.0,STARLINK-5104,PAYLOAD,2024-06-07 00:45:52,14.98332035,0.0002881,69.9985,359.919,270.0812,90.0017,4.075e-05,3.93e-06,0.0,0 STARLINK-5104,1 55646U 23021U   24159.03186260  .00000393  00000-0  40750-4 0  9996,2 55646  69.9985 359.9190 0002881 270.0812  90.0017 14.98332035 72520,6950.187,96.107,574.054,570.049,0.0
55646.0,STARLINK-5104,PAYLOAD,2024-06-07 07:10:25,14.98329852,0.0002973,69.9976,359.2457,270.0961,89.9858,4.2974e-05,4.2e-06,0.0,0 STARLINK-5104,1 55646U 23021U   24159.29890345  .00000420  00000-0  42974-4 0  9991,2 55646  69.9976 359.2457 0002973 270.0961  89.9858 14.98329852 72866,6950.193,96.107,574.125,569.992,0.0
55646.0,STARLINK-5104,PAYLOAD,2024-06-07 21:35:37,14.98329313,0.0003081,69.9985,357.7306,269.652,90.4286,5.1012e-05,5.16e-06,0.0,0 STARLINK-5104,1 55646U 23021U   24159.89974350  .00000516  00000-0  51012-4 0  9995,2 55646  69.9985 357.7306 0003081 269.6520  90.4286 14.98329313 72952,6950.195,96.107,574.201,569.919,0.0
55646.0,STARLINK-5104,PAYLOAD,2024-06-08 00:47:53,14.98331637,0.0003092,69.9994,357.394,269.7377,90.3428,6.8914e-05,7.29e-06,0.0,0 STARLINK-5104,1 55646U 23021U   24160.03326150  .00000729  00000-0  68914-4 0  9997,2 55646  69.9994 357.3940 0003092 269.7377  90.3428 14.98331637 72673,6950.188,96.107,574.202,569.904,0.0
55646.0,STARLINK-5104,PAYLOAD,2024-06-08 21:37:38,14.98334167,0.0003056,69.9998,355.2057,270.4112,89.6697,3.7583e-05,3.55e-06,0.0,0 STARLINK-5104,1 55646U 23021U   24160.90113898  .00000355  00000-0  37583-4 0  9999,2 55646  69.9998 355.2057 0003056 270.4112  89.6697 14.98334167 73108,6950.18,96.107,574.169,569.921,0.0
55646.0,STARLINK-5104,PAYLOAD,2024-06-09 12:02:51,14.98327333,0.0002969,70.0007,353.6909,270.9661,89.1158,-2.87e-05,-4.35e-06,0.0,0 STARLINK-5104,1 55646U 23021U   24161.50198479 -.00000435  00000-0 -28700-4 0  9996,2 55646  70.0007 353.6909 0002969 270.9661  89.1158 14.98327333 72895,6950.201,96.107,574.13,570.003,0.0
55646.0,STARLINK-5104,PAYLOAD,2024-06-09 21:39:39,14.98326858,0.0002973,70.0007,352.681,270.835,89.2469,-3.9803e-05,-5.68e-06,0.0,0 STARLINK-5104,1 55646U 23021U   24161.90254589 -.00000568  00000-0 -39803-4 0  9998,2 55646  70.0007 352.6810 0002973 270.8350  89.2469 14.98326858 73252,6950.203,96.107,574.134,570.001,0.0
55646.0,STARLINK-5104,PAYLOAD,2024-06-10 13:41:00,14.9833255,0.0002942,70.0007,350.9975,271.8808,88.2014,4.2629e-05,4.16e-06,0.0,0 STARLINK-5104,1 55646U 23021U   24162.57013991  .00000416  00000-0  42629-4 0  9992,2 55646  70.0007 350.9975 0002942 271.8808  88.2014 14.98332550 73059,6950.185,96.107,574.095,570.005,0.0
55646.0,STARLINK-5104,PAYLOAD,2024-06-10 21:41:40,14.98331301,0.0002975,70.0001,350.1559,270.4494,89.6324,2.0423e-05,1.51e-06,0.0,0 STARLINK-5104,1 55646U 23021U   24162.90394095  .00000151  00000-0  20423-4 0  9990,2 55646  70.0001 350.1559 0002975 270.4494  89.6324 14.98331301 73406,6950.189,96.107,574.122,569.986,0.0
55646.0,STARLINK-5104,PAYLOAD,2024-06-11 13:43:01,14.9832905,0.0003056,69.9998,348.4722,270.6065,89.4744,8.7448e-05,9.51e-06,0.0,0 STARLINK-5104,1 55646U 23021U   24163.57153991  .00000951  00000-0  87448-4 0  9990,2 55646  69.9998 348.4722 0003056 270.6065  89.4744 14.98329050 73500,6950.196,96.107,574.185,569.937,0.0
55646.0,STARLINK-5104,PAYLOAD,2024-06-12 05:44:21,14.98327593,0.0003021,69.9999,346.789,269.9332,90.1481,1.1648e-05,4.6e-07,0.0,0 STARLINK-5104,1 55646U 23021U   24164.23914285  .00000046  00000-0  11648-4 0  9999,2 55646  69.9999 346.7890 0003021 269.9332  90.1481 14.98327593 73303,6950.2,96.107,574.165,569.966,0.0
55646.0,STARLINK-5104,PAYLOAD,2024-06-12 21:45:42,14.98325485,0.0003044,69.9999,345.1054,268.8376,91.2435,-4.486e-05,-6.28e-06,0.0,0 STARLINK-5104,1 55646U 23021U   24164.90674631 -.00000628  00000-0 -44860-4 0  9991,2 55646  69.9999 345.1054 0003044 268.8376  91.2435 14.98325485 73702,6950.207,96.107,574.187,569.956,0.0
55646.0,STARLINK-5104,PAYLOAD,2024-06-13 13:47:03,14.9832974,0.0003114,69.9998,343.4222,268.6882,91.392,1.0858e-05,3.7e-07,0.0,0 STARLINK-5104,1 55646U 23021U   24165.57434219  .00000037  00000-0  10858-4 0  9993,2 55646  69.9998 343.4222 0003114 268.6882  91.3920 14.98329740 73503,6950.194,96.107,574.223,569.894,0.0
55646.0,STARLINK-5104,PAYLOAD,2024-06-13 21:47:43,14.98331935,0.0003107,69.9998,342.5802,268.0704,92.0099,-1.9116e-07,-9.5e-07,0.0,0 STARLINK-5104,1 55646U 23021U   24165.90814095 -.00000095  00000-0 -19116-6 0  9998,2 55646  69.9998 342.5802 0003107 268.0704  92.0099 14.98331935 73858,6950.187,96.107,574.211,569.892,0.0
55646.0,STARLINK-5104,PAYLOAD,2024-06-14 13:49:04,14.98328273,0.0003137,69.9999,340.897,268.1554,91.9246,7.2374e-05,7.71e-06,0.0,0 STARLINK-5104,1 55646U 23021U   24166.57574128  .00000771  00000-0  72374-4 0  9994,2 55646  69.9999 340.8970 0003137 268.1554  91.9246 14.98328273 73957,6950.198,96.107,574.244,569.883,0.0
55646.0,STARLINK-5104,PAYLOAD,2024-06-14 21:49:44,14.98330931,0.0003134,69.9999,340.0553,268.0875,91.9925,7.2506e-05,7.72e-06,0.0,0 STARLINK-5104,1 55646U 23021U   24166.90953967  .00000772  00000-0  72506-4 0  9991,2 55646  69.9999 340.0553 0003134 268.0875  91.9925 14.98330931 74003,6950.19,96.107,574.233,569.877,0.0
55646.0,STARLINK-5104,PAYLOAD,2024-06-15 13:51:04,14.98333682,0.0003093,69.9999,338.372,268.4534,91.6271,4.3584e-05,4.27e-06,0.0,0 STARLINK-5104,1 55646U 23021U   24167.57713785  .00000427  00000-0  43584-4 0  9998,2 55646  69.9999 338.3720 0003093 268.4534  91.6271 14.98333682 74107,6950.182,96.107,574.196,569.897,0.0
55646.0,STARLINK-5104,PAYLOAD,2024-06-15 20:15:36,14.98334621,0.0003074,69.9999,337.6987,268.4309,91.6498,5.2121e-05,5.29e-06,0.0,0 STARLINK-5104,1 55646U 23021U   24167.84417629  .00000529  00000-0  52121-4 0  9996,2 55646  69.9999 337.6987 0003074 268.4309  91.6498 14.98334621 74142,6950.179,96.107,574.18,569.907,0.0
55646.0,STARLINK-5104,PAYLOAD,2024-06-16 13:53:05,14.98330828,0.0003016,70.0,335.847,269.8527,90.2286,-5.3421e-06,-1.57e-06,0.0,0 STARLINK-5104,1 55646U 23021U   24168.57853872 -.00000157  00000-0 -53421-5 0  9995,2 55646  70.0000 335.8470 0003016 269.8527  90.2286 14.98330828 74255,6950.19,96.107,574.152,569.959,0.0
55646.0,STARLINK-5104,PAYLOAD,2024-06-16 20:17:37,14.98330701,0.0003041,70.0,335.1739,268.5258,91.5552,-1.0575e-05,-2.19e-06,0.0,0 STARLINK-5104,1 55646U 23021U   24168.84557856 -.00000219  00000-0 -10575-4 0  9999,2 55646  70.0000 335.1739 0003041 268.5258  91.5552 14.98330701 74295,6950.191,96.107,574.169,569.942,0.0
